[{"OBJECT_NAME":"STARLINK-3791","OBJECT_ID":"2022-041J","EPOCH":"2026-03-09T11:52:31.376640","MEAN_MOTION":15.08839939,"ECCENTRICITY":0.00013718,"INCLINATION":53.2168,"RA_OF_ASC_NODE":109.9949,"ARG_OF_PERICENTER":89.2886,"MEAN_ANOMALY":270.8264,"EPHEMERIS_TYPE":0,"CLASSIFICATION_TYPE":"U","NORAD_CAT_ID":52269,"ELEMENT_SET_NO":999,"REV_AT_EPOCH":21433,"BSTAR":3.3938426e-5,"MEAN_MOTION_DOT":2.52e-6,"MEAN_MOTION_DDOT":0},{"OBJECT_NAME":"CZ-4C R\/B","OBJECT_ID":"2024-186B","EPOCH":"2026-03-09T22:51:12.491424","MEAN_MOTION":15.07425891,"ECCENTRICITY":0.00475116,"INCLINATION":97.8722,"RA_OF_ASC_NODE":96.5934,"ARG_OF_PERICENTER":122.4234,"MEAN_ANOMALY":238.1602,"EPHEMERIS_TYPE":0,"CLASSIFICATION_TYPE":"U","NORAD_CAT_ID":61572,"ELEMENT_SET_NO":999,"REV_AT_EPOCH":7672,"BSTAR":0.00027865777,"MEAN_MOTION_DOT":4.262e-5,"MEAN_MOTION_DDOT":0}]
